{
  "type": "FeatureCollection",
  "features": [
    {
      "type": "Feature",
      "properties": {
        "norad_id": 36083,
        "name": "IRIDIUM 33 DEB",
        "group": "iridium-33-debris",
        "lat": -84.52842159114905,
        "lon": -100.41957197337098,
        "alt_km": 738.54322878924,
        "timestamp": "2025-12-04T10:51:50.491016+00:00",
        "meta_object_name": "IRIDIUM 33 DEB",
        "meta_object_id": "1997-051VQ",
        "meta_epoch": "2025-11-30T10:46:50.880000",
        "meta_mean_motion": 14.43133955,
        "meta_eccentricity": 0.00245074,
        "meta_inclination": 86.345,
        "meta_ra_of_asc_node": 39.4431,
        "meta_arg_of_pericenter": 266.1752,
        "meta_mean_anomaly": 93.6646,
        "meta_ephemeris_type": 0,
        "meta_classification_type": "U",
        "meta_norad_cat_id": 36083,
        "meta_element_set_no": 999,
        "meta_rev_at_epoch": 85272,
        "meta_bstar": 0.00060468289,
        "meta_mean_motion_dot": 2.056e-05,
        "meta_mean_motion_ddot": 0,
        "tle_line1": "1 36083U 97051VQ  25334.44920000  .00002056  00000+0  60468-3 0  9997",
        "tle_line2": "2 36083  86.3450  39.4431 0024507 266.1752  93.6646 14.43133955852725"
      },
      "geometry": {
        "type": "Point",
        "coordinates": [
          -100.41957197337098,
          -84.52842159114905
        ]
      }
    },
    {
      "type": "Feature",
      "properties": {
        "norad_id": 36390,
        "name": "IRIDIUM 33 DEB",
        "group": "iridium-33-debris",
        "lat": -80.29677842528736,
        "lon": 145.497426934186,
        "alt_km": 650.6513533262569,
        "timestamp": "2025-12-04T10:51:50.491027+00:00",
        "meta_object_name": "IRIDIUM 33 DEB",
        "meta_object_id": "1997-051VU",
        "meta_epoch": "2025-11-30T04:37:26.668128",
        "meta_mean_motion": 14.73329322,
        "meta_eccentricity": 0.00285998,
        "meta_inclination": 86.289,
        "meta_ra_of_asc_node": 305.1428,
        "meta_arg_of_pericenter": 206.0853,
        "meta_mean_anomaly": 153.8925,
        "meta_ephemeris_type": 0,
        "meta_classification_type": "U",
        "meta_norad_cat_id": 36390,
        "meta_element_set_no": 999,
        "meta_rev_at_epoch": 66077,
        "meta_bstar": 0.001268982,
        "meta_mean_motion_dot": 8.29e-05,
        "meta_mean_motion_ddot": 0,
        "tle_line1": "1 36390U 97051VU  25334.19266977  .00008290  00000+0  12690-2 0  9995",
        "tle_line2": "2 36390  86.2890 305.1428 0028599 206.0853 153.8925 14.73329322660771"
      },
      "geometry": {
        "type": "Point",
        "coordinates": [
          145.497426934186,
          -80.29677842528736
        ]
      }
    },
    {
      "type": "Feature",
      "properties": {
        "norad_id": 36483,
        "name": "IRIDIUM 33 DEB",
        "group": "iridium-33-debris",
        "lat": -8.212197103004268,
        "lon": 55.5123654452357,
        "alt_km": 750.391159289883,
        "timestamp": "2025-12-04T10:51:50.491042+00:00",
        "meta_object_name": "IRIDIUM 33 DEB",
        "meta_object_id": "1997-051VZ",
        "meta_epoch": "2025-12-01T23:06:08.589024",
        "meta_mean_motion": 14.45743317,
        "meta_eccentricity": 0.00104053,
        "meta_inclination": 86.3803,
        "meta_ra_of_asc_node": 57.101,
        "meta_arg_of_pericenter": 156.2304,
        "meta_mean_anomaly": 203.9381,
        "meta_ephemeris_type": 0,
        "meta_classification_type": "U",
        "meta_norad_cat_id": 36483,
        "meta_element_set_no": 999,
        "meta_rev_at_epoch": 64990,
        "meta_bstar": 0.00063754459,
        "meta_mean_motion_dot": 2.279e-05,
        "meta_mean_motion_ddot": 0,
        "tle_line1": "1 36483U 97051VZ  25335.96259941  .00002279  00000+0  63754-3 0  9996",
        "tle_line2": "2 36483  86.3803  57.1010 0010405 156.2304 203.9381 14.45743317649902"
      },
      "geometry": {
        "type": "Point",
        "coordinates": [
          55.5123654452357,
          -8.212197103004268
        ]
      }
    },
    {
      "type": "Feature",
      "properties": {
        "norad_id": 36490,
        "name": "IRIDIUM 33 DEB",
        "group": "iridium-33-debris",
        "lat": 66.7675082494955,
        "lon": 22.714261691772652,
        "alt_km": 632.675729861614,
        "timestamp": "2025-12-04T10:51:50.491053+00:00",
        "meta_object_name": "IRIDIUM 33 DEB",
        "meta_object_id": "1997-051WG",
        "meta_epoch": "2025-12-03T08:31:33.585312",
        "meta_mean_motion": 14.75863778,
        "meta_eccentricity": 0.0005497,
        "meta_inclination": 86.3663,
        "meta_ra_of_asc_node": 14.6956,
        "meta_arg_of_pericenter": 104.0809,
        "meta_mean_anomaly": 256.1022,
        "meta_ephemeris_type": 0,
        "meta_classification_type": "U",
        "meta_norad_cat_id": 36490,
        "meta_element_set_no": 999,
        "meta_rev_at_epoch": 86346,
        "meta_bstar": 0.0019536,
        "meta_mean_motion_dot": 0.00013443,
        "meta_mean_motion_ddot": 0,
        "tle_line1": "1 36490U 97051WG  25337.35524983  .00013443  00000+0  19536-2 0  9993",
        "tle_line2": "2 36490  86.3663  14.6956 0005497 104.0809 256.1022 14.75863778863465"
      },
      "geometry": {
        "type": "Point",
        "coordinates": [
          22.714261691772652,
          66.7675082494955
        ]
      }
    },
    {
      "type": "Feature",
      "properties": {
        "norad_id": 36493,
        "name": "IRIDIUM 33 DEB",
        "group": "iridium-33-debris",
        "lat": -45.40928132756831,
        "lon": 11.656947401884134,
        "alt_km": 682.0777101016565,
        "timestamp": "2025-12-04T10:51:50.491063+00:00",
        "meta_object_name": "IRIDIUM 33 DEB",
        "meta_object_id": "1997-051WK",
        "meta_epoch": "2025-12-03T08:50:35.978208",
        "meta_mean_motion": 14.65031895,
        "meta_eccentricity": 0.0011319,
        "meta_inclination": 86.3578,
        "meta_ra_of_asc_node": 15.8429,
        "meta_arg_of_pericenter": 36.2208,
        "meta_mean_anomaly": 323.9769,
        "meta_ephemeris_type": 0,
        "meta_classification_type": "U",
        "meta_norad_cat_id": 36493,
        "meta_element_set_no": 999,
        "meta_rev_at_epoch": 74381,
        "meta_bstar": 0.0016123,
        "meta_mean_motion_dot": 8.675e-05,
        "meta_mean_motion_ddot": 0,
        "tle_line1": "1 36493U 97051WK  25337.36847197  .00008675  00000+0  16123-2 0  9992",
        "tle_line2": "2 36493  86.3578  15.8429 0011319  36.2208 323.9769 14.65031895743813"
      },
      "geometry": {
        "type": "Point",
        "coordinates": [
          11.656947401884134,
          -45.40928132756831
        ]
      }
    },
    {
      "type": "Feature",
      "properties": {
        "norad_id": 37548,
        "name": "IRIDIUM 33 DEB",
        "group": "iridium-33-debris",
        "lat": -15.927008605183921,
        "lon": -131.9829699844153,
        "alt_km": 710.6249403410284,
        "timestamp": "2025-12-04T10:51:50.491074+00:00",
        "meta_object_name": "IRIDIUM 33 DEB",
        "meta_object_id": "1997-051XH",
        "meta_epoch": "2025-11-29T22:23:36.250944",
        "meta_mean_motion": 14.5113469,
        "meta_eccentricity": 0.00243457,
        "meta_inclination": 86.3524,
        "meta_ra_of_asc_node": 48.9393,
        "meta_arg_of_pericenter": 232.6782,
        "meta_mean_anomaly": 127.2204,
        "meta_ephemeris_type": 0,
        "meta_classification_type": "U",
        "meta_norad_cat_id": 37548,
        "meta_element_set_no": 999,
        "meta_rev_at_epoch": 65346,
        "meta_bstar": 0.0012745087,
        "meta_mean_motion_dot": 5.093e-05,
        "meta_mean_motion_ddot": 0,
        "tle_line1": "1 37548U 97051XH  25333.93305846  .00005093  00000+0  12745-2 0  9990",
        "tle_line2": "2 37548  86.3524  48.9393 0024345 232.6782 127.2204 14.51134690653467"
      },
      "geometry": {
        "type": "Point",
        "coordinates": [
          -131.9829699844153,
          -15.927008605183921
        ]
      }
    },
    {
      "type": "Feature",
      "properties": {
        "norad_id": 37550,
        "name": "IRIDIUM 33 DEB",
        "group": "iridium-33-debris",
        "lat": 60.746168001625456,
        "lon": -158.94483411541893,
        "alt_km": 661.2025533874685,
        "timestamp": "2025-12-04T10:51:50.491084+00:00",
        "meta_object_name": "IRIDIUM 33 DEB",
        "meta_object_id": "1997-051XK",
        "meta_epoch": "2025-12-01T10:17:32.492256",
        "meta_mean_motion": 14.66958093,
        "meta_eccentricity": 0.00051706,
        "meta_inclination": 86.3787,
        "meta_ra_of_asc_node": 28.8861,
        "meta_arg_of_pericenter": 137.4218,
        "meta_mean_anomaly": 222.7397,
        "meta_ephemeris_type": 0,
        "meta_classification_type": "U",
        "meta_norad_cat_id": 37550,
        "meta_element_set_no": 999,
        "meta_rev_at_epoch": 86167,
        "meta_bstar": 0.0016356222,
        "meta_mean_motion_dot": 9.181e-05,
        "meta_mean_motion_ddot": 0,
        "tle_line1": "1 37550U 97051XK  25335.42884829  .00009181  00000+0  16356-2 0  9996",
        "tle_line2": "2 37550  86.3787  28.8861 0005170 137.4218 222.7397 14.66958093861674"
      },
      "geometry": {
        "type": "Point",
        "coordinates": [
          -158.94483411541893,
          60.746168001625456
        ]
      }
    }
  ]
}